[{"OBJECT_NAME":"FORMOSAT 7-4","OBJECT_ID":"2019-036M","EPOCH":"2026-03-09T23:18:59.695200","MEAN_MOTION":14.96015542,"ECCENTRICITY":0.00014118,"INCLINATION":23.9994,"RA_OF_ASC_NODE":43.1446,"ARG_OF_PERICENTER":104.6737,"MEAN_ANOMALY":255.392,"EPHEMERIS_TYPE":0,"CLASSIFICATION_TYPE":"U","NORAD_CAT_ID":44350,"ELEMENT_SET_NO":999,"REV_AT_EPOCH":36919,"BSTAR":0.00031042546,"MEAN_MOTION_DOT":3.87e-5,"MEAN_MOTION_DDOT":0},{"OBJECT_NAME":"STARLINK-5977","OBJECT_ID":"2023-078AA","EPOCH":"2026-03-09T21:30:17.415360","MEAN_MOTION":14.98338947,"ECCENTRICITY":0.00031533,"INCLINATION":70.001,"RA_OF_ASC_NODE":343.8401,"ARG_OF_PERICENTER":269.6749,"MEAN_ANOMALY":90.4049,"EPHEMERIS_TYPE":0,"CLASSIFICATION_TYPE":"U","NORAD_CAT_ID":56791,"ELEMENT_SET_NO":999,"REV_AT_EPOCH":15271,"BSTAR":-0.00019998517,"MEAN_MOTION_DOT":-2.479e-5,"MEAN_MOTION_DDOT":0}]
